GSAT0222 (PRN E33)      
1 43565U 18060B   22359.91453366 -.00000072  00000+0  00000+0 0  9994
2 43565  57.2346  16.0089 0005086 280.1609  79.8252  1.70475686 27579
GSAT0219 (PRN E36)      
1 43566U 18060C   22361.30823280 -.00000078  00000+0  00000+0 0  9993
2 43566  57.2356  15.9732 0004780 281.7407  78.2443  1.70475736 27578
GSAT0220 (PRN E13)      
1 43567U 18060D   22359.76875832 -.00000072  00000+0  00000+0 0  9995
2 43567  57.2350  16.0149 0004907 278.8726  81.1159  1.70475392 27530
BEIDOU-3 M9 (C23)       
1 43581U 18062A   22361.15057796  .00000043  00000+0  00000+0 0  9997
2 43581  54.2253 225.4933 0002767 322.3871 257.3145  1.86232027 30012
BEIDOU-3 M10 (C24)      
1 43582U 18062B   22361.59923671  .00000040  00000+0  00000+0 0  9997
2 43582  54.2250 225.4670 0006784  20.1774 232.2911  1.86231623 30021
BEIDOU-3 M11 (C25)      
1 43602U 18067A   22361.29567932  .00000044  00000+0  00000+0 0  9990
2 43602  54.3094 224.1102 0008024  19.0573  70.8631  1.86231600 29512
BEIDOU-3 M12 (C26)      
1 43603U 18067B   22360.96447024  .00000047  00000+0  00000+0 0  9996
2 43603  54.3067 224.0876 0004945  13.0717 125.1281  1.86231545 29526
BEIDOU-3 M13 (C32)      
1 43622U 18072A   22361.16730972  .00000000  00000+0  00000+0 0  9992
2 43622  55.6006 104.8851 0005362 274.3241  28.5750  1.86231438 29034
BEIDOU-3 M14 (C33)      
1 43623U 18072B   22360.65126442  .00000001  00000+0  00000+0 0  9998
2 43623  55.6003 104.8948 0002550 308.2369  98.9208  1.86231446 29031
BEIDOU-3 M15 (C34)      
1 43647U 18078A   22361.00661602 -.00000080  00000+0  10000-3 0  9995
2 43647  55.0463 343.9827 0007472 358.6923 182.2824  1.86213678 28549
BEIDOU-3 M16 (C35)      
1 43648U 18078B   22360.86397096 -.00000079  00000+0  00000+0 0  9995
2 43648  55.0413 343.9951 0004043 354.5939 358.4653  1.86232262 28554
BEIDOU-3 G1 (C59)       
1 43683U 18085A   22361.55604830 -.00000276  00000+0  00000+0 0  9995
2 43683   1.0355 148.1237 0003716 187.6733 100.4566  1.00268340 15347
COSMOS 2529 (757)       
1 43687U 18086A   22361.48067086  .00000034  00000+0  00000+0 0  9999
2 43687  64.3378 235.5679 0008212 271.5380 270.4527  2.13102144 32276
BEIDOU-3 M17 (C36)      
1 43706U 18093A   22359.95055075  .00000057  00000+0  00000+0 0  9998
2 43706  54.3074 225.4330 0007339 290.5410  69.4690  1.86231826 27906
BEIDOU-3 M18 (C37)      
1 43707U 18093B   22361.15834487  .00000044  00000+0  00000+0 0  9992
2 43707  54.3079 225.3831 0007293 323.1728 218.0226  1.86232343 27914
GPS BIII-1  (PRN 04)    
1 43873U 18109A   22360.86011189  .00000054  00000+0  00000+0 0  9998
2 43873  55.1303 142.2985 0022699 188.2775 339.5816  2.00557102 29638
BEIDOU-3 IGSO-1 (C38)   
1 44204U 19023A   22361.62434948 -.00000225  00000+0  00000+0 0  9991
2 44204  56.8399  50.9084 0023972 196.6752 189.3662  1.00251544 13653
BEIDOU-2 G8             
1 44231U 19027A   22360.80348199 -.00000247  00000+0  00000+0 0  9990
2 44231   1.3306  80.4310 0005598 135.3747 313.1245  1.00265676 13356
COSMOS 2534 (758)       
1 44299U 19030A   22360.83846524  .00000041  00000+0  00000+0 0  9997
2 44299  64.4098 235.4930 0011302 293.1803 250.5190  2.13101939 27909
BEIDOU-3 IGSO-2 (C39)   
1 44337U 19035A   22361.38123800 -.00000084  00000+0  00000+0 0  9999
2 44337  55.1156 170.0173 0029630 192.3202 346.7303  1.00298766 12989
GPS BIII-2  (PRN 18)    
1 44506U 19056A   22361.51785716 -.00000081  00000+0  00000+0 0  9992
2 44506  55.7551  21.3794 0029865 186.1570 357.2531  2.00559946 24645
BEIDOU-3 M23 (C45)      
1 44542U 19061A   22359.88709690  .00000058  00000+0  00000+0 0  9995
2 44542  54.5343 225.6151 0008900 359.3111   0.7772  1.86231410 22156
BEIDOU-3 M24 (C46)      
1 44543U 19061B   22361.36369088  .00000042  00000+0  00000+0 0  9998
2 44543  54.5319 225.5352 0005842 354.1286 187.4976  1.86231936 22174
BEIDOU-3 IGSO-3         
1 44709U 19073A   22361.36559579 -.00000197  00000+0  10000-3 0  9998
2 44709  56.9545 294.3776 0025670 182.3039 227.1612  1.00250488 11735
BEIDOU-3 M21            
1 44793U 19078A   22361.34424451 -.00000081  00000+0  10000-3 0  9996
2 44793  54.8943 343.9715 0006205 358.6998   2.5410  1.86232272 21047
BEIDOU-3 M22            
1 44794U 19078B   22361.20489560 -.00000081  00000+0  00000+0 0  9999
2 44794  54.8679 343.9639 0004402 346.3710 193.4436  1.86232760 21031
COSMOS 2544 (759)       
1 44850U 19088A   22361.55412333  .00000030  00000+0  16595+1 0  9995
2 44850  65.0028 116.2108 0011488 250.1283 108.0321  2.13102297 23687
BEIDOU-3 M19            
1 44864U 19090A   22361.18694176  .00000001  00000+0  00000+0 0  9990
2 44864  55.5348 105.0845 0016107 267.4256  94.6139  1.86231819 20629
BEIDOU-3 M20            
1 44865U 19090B   22361.05257600  .00000001  00000+0  00000+0 0  9994
2 44865  55.5358 105.1211 0013911 281.4754  80.3125  1.86231781 20599
BEIDOU-3 G2             
1 45344U 20017A   22361.15049236 -.00000138  00000+0  00000+0 0  9995
2 45344   1.9919   2.3949 0001478 215.0774  12.3075  1.00269191 10541
COSMOS 2545 (760)       
1 45358U 20018A   22361.51785716 -.00000052  00000+0  00000+0 0  9996
2 45358  64.8985 356.6157 0011592 251.3238 288.2617  2.13102778 21640
BEIDOU-3 G3             
1 45807U 20040A   22361.51407043 -.00000351  00000+0  00000+0 0  9996
2 45807   1.0200 311.7436 0008428 340.4126  99.4584  1.00271199  9363
GPS BIII-3  (PRN 23)    
1 45854U 20041A   22361.52109858 -.00000042  00000+0  00000+0 0  9990
2 45854  55.6742  78.6507 0029577 183.7999 302.5854  2.00567167 18613
GALAXY 30 (WAAS/PRN 135)
1 46114U 20056C   22361.51261705  .00000039  00000+0  00000+0 0  9990
2 46114   0.0171  27.7865 0001939 246.2933 241.4122  1.00271631  8581
GPS BIII-4  (PRN 14)    
1 46826U 20078A   22361.08024455 -.00000008  00000+0  00000+0 0  9992
2 46826  54.4467 262.2759 0025140 189.5587 314.8535  2.00564737 16073
GPS BIII-5  (PRN 11)    
1 48859U 21054A   22361.13528164 -.00000080  00000+0  00000+0 0  9997
2 48859  55.2658  23.3003 0009144 215.6943 152.9681  2.00562267 11325
